SHIJIAN-17 (SJ-17)      
1 41838U 16065A   26177.21803404  .00000122  00000+0  00000+0 0  9990
2 41838   5.7755  72.4995 0002236  28.5391 114.0806  0.99858560 35291
GOES 16                 
1 41866U 16071A   26177.25540108 -.00000080  00000+0  00000+0 0  9995
2 41866   0.3642  85.5313 0000559   4.8132 171.2863  1.00272055 35192
TIANLIAN 1-04           
1 41869U 16072A   26177.27296204  .00000041  00000+0  00000+0 0  9992
2 41869   0.8916  82.8683 0042837  90.2915  16.2844  1.00273040 35391
WGS F8 (USA 272)        
1 41879U 16075A   26176.98241882  .00000000  00000+0  00000+0 0  9990
2 41879   0.0461  53.4128 0000118 150.0306 214.1982  1.00267884 34909
FENGYUN 4A              
1 41882U 16077A   26177.26238867 -.00000348  00000+0  00000+0 0  9993
2 41882   2.3463  80.1926 0008235 152.1511 260.1043  1.00264762 35027
ECHOSTAR 19             
1 41893U 16079A   26177.21863122 -.00000127  00000+0  00000+0 0  9995
2 41893   0.0188  17.3300 0001591  70.5672 168.0507  1.00270854 34798
JCSAT-110A (JCSAT-15)   
1 41903U 16082A   26176.59280796 -.00000341  00000+0  00000+0 0  9999
2 41903   0.0187   1.0191 0000785  97.6725 138.5159  1.00271693 34843
STAR ONE D1             
1 41904U 16082B   26177.29449461 -.00000200  00000+0  00000+0 0  9998
2 41904   0.0207  52.8627 0002284  57.1683 186.4109  1.00271933 34861
TJS-2                   
1 41911U 17001A   26177.10848911  .00000004  00000+0  00000+0 0  9992
2 41911   0.8564  85.2287 0000735  44.8832 249.7151  1.00272130 34807
SBIRS GEO-4 (USA 273)   
1 41937U 17004A   26177.24207457  .00000132  00000+0  00000+0 0  9994
2 41937   2.2602  43.5304 0002351  43.9200 294.9655  1.00273448 34686
HISPASAT 36W-1          
1 41942U 17006A   26176.80305182  .00000000  00000+0  00000+0 0  9991
2 41942   0.0115  13.6207 0001063  87.9718  65.4528  1.00269860 34333
TELKOM 3S               
1 41944U 17007A   26176.70253148 -.00000352  00000+0  00000+0 0  9998
2 41944   0.0174  41.1293 0002524  57.6939 185.9144  1.00269768 34220
INTELSAT 32E (IS-32E)   
1 41945U 17007B   26177.15802606  .00000000  00000+0  00000+0 0  9997
2 41945   0.0267  12.3300 0000471 351.3179 284.3451  1.00269211 34310
ECHOSTAR 23             
1 42070U 17014A   26176.36063686 -.00000047  00000+0  00000+0 0  9996
2 42070   0.0031  86.2311 0002137   8.3167 198.8773  1.00273040 34005
WGS F9 (USA 275)        
1 42075U 17016A   26177.16426610 -.00000085  00000+0  00000+0 0  9994
2 42075   0.0205 334.4931 0000364  98.4598 248.4719  1.00272834 33985
SES-10                  
1 42432U 17017A   26176.36913023 -.00000263  00000+0  00000+0 0  9990
2 42432   0.0216  41.9132 0003038  56.8061 240.7783  1.00273735 33832
CHINASAT 16 (SJ-13)     
1 42662U 17018A   26176.97461878 -.00000342  00000+0  00000+0 0  9997
2 42662   0.0997  89.7024 0004043 125.6560 160.1297  1.00275032 33836
KOREASAT 7              
1 42691U 17023A   26176.97565878 -.00000351  00000+0  00000+0 0  9990
2 42691   0.0193  14.7223 0000502  57.3544 309.1713  1.00270512 33458
SGDC                    
1 42692U 17023B   26176.44803111 -.00000240  00000+0  00000+0 0  9995
2 42692   0.0199  54.8211 0002825  44.6585 260.5479  1.00272031 33492
GSAT-9                  
1 42695U 17024A   26176.97201877 -.00000276  00000+0  00000+0 0  9997
2 42695   0.0361  87.7222 0002079  19.3766 254.1971  1.00275668 33387
INMARSAT 5-F4           
1 42698U 17025A   26175.18162001  .00000083  00000+0  00000+0 0  9993
2 42698   0.0032  84.3686 0000934 288.6264  21.2184  1.00265152 33346
SES-15                  
1 42709U 17026A   26175.50131078  .00000068  00000+0  00000+0 0  9996
2 42709   0.0193 335.4736 0000659  95.5096 252.9752  1.00268280  7503
QZS-2 (MICHIBIKI-2)     
1 42738U 17028A   26175.48562404 -.00000157  00000+0  00000+0 0  9998
2 42738  39.4163 243.0474 0759303 269.3393  77.0374  1.00282000  7691
VIASAT-2                
1 42740U 17029A   26175.22767060 -.00000258  00000+0  00000+0 0  9991
2 42740   0.0153 301.1892 0000353 112.3888 230.8800  1.00272341 33270
EUTELSAT 172B           
1 42741U 17029B   26177.20065896  .00000005  00000+0  00000+0 0  9999
2 42741   0.0411 138.4786 0000268 307.8674  72.2190  1.00271266 33837
GSAT-19                 
1 42747U 17031A   26177.24736126  .00000136  00000+0  00000+0 0  9998
2 42747   0.0151 314.5183 0007158 121.6298 335.1238  1.00271981 33233
ECHOSTAR 21             
1 42749U 17032A   26177.23990789  .00000077  00000+0  00000+0 0  9991
2 42749   1.7703 356.3175 0002600  87.0804 287.5942  1.00273127 33197
BULGARIASAT-1           
1 42801U 17038A   26177.23826122  .00000023  00000+0  00000+0 0  9996
2 42801   0.0313  74.6669 0003794  27.5807 259.7950  1.00276897 32938
HELLAS-SAT 3            
1 42814U 17040A   26176.21850447  .00000162  00000+0  00000+0 0  9991
2 42814   0.0388  32.2362 0004850  27.6131 331.2103  1.00276198 32883
GSAT-17                 
1 42815U 17040B   26177.11386248 -.00000247  00000+0  00000+0 0  9990
2 42815   0.0289  83.7014 0001465 213.1787 111.8521  1.00271835 32875
INTELSAT 35E (IS-35E)   
1 42818U 17041A   26177.25362377  .00000000  00000+0  00000+0 0  9992
2 42818   0.0262  17.4303 0002387  78.8366 234.9314  1.00269368 32906
COSMOS 2520             
1 42907U 17046A   26174.90294715  .00000143  00000+0  00000+0 0  9993
2 42907   0.0481  95.9270 0000820  77.4277 108.7874  1.00274167 32461
