OBJECT_NAME,OBJECT_ID,EPOCH,MEAN_MOTION,ECCENTRICITY,INCLINATION,RA_OF_ASC_NODE,ARG_OF_PERICENTER,MEAN_ANOMALY,EPHEMERIS_TYPE,CLASSIFICATION_TYPE,NORAD_CAT_ID,ELEMENT_SET_NO,REV_AT_EPOCH,BSTAR,MEAN_MOTION_DOT,MEAN_MOTION_DDOT
SHIJIAN-17 (SJ-17),2016-065A,2026-06-26T05:13:58.141056,0.99858560,.0002236,5.7755,72.4995,28.5391,114.0806,0,U,41838,999,3529,0,.122E-5,0
GOES 16,2016-071A,2026-06-26T06:07:46.653312,1.00272055,.00005599,0.3642,85.5313,4.8132,171.2863,0,U,41866,999,3519,0,-.8E-6,0
TIANLIAN 1-04,2016-072A,2026-06-26T06:33:03.920256,1.00273040,.00428371,0.8916,82.8683,90.2915,16.2844,0,U,41869,999,3539,0,.41E-6,0
WGS F8 (USA 272),2016-075A,2026-06-25T23:34:40.986048,1.00267884,.00001182,0.0461,53.4128,150.0306,214.1982,0,U,41879,999,3490,0,0,0
FENGYUN 4A,2016-077A,2026-06-26T06:17:50.381088,1.00264762,.0008235,2.3463,80.1926,152.1511,260.1043,0,U,41882,999,3502,0,-.348E-5,0
ECHOSTAR 19,2016-079A,2026-06-26T05:14:49.737408,1.00270854,.00015916,0.0188,17.3300,70.5672,168.0507,0,U,41893,999,3479,0,-.127E-5,0
JCSAT-110A (JCSAT-15),2016-082A,2026-06-25T14:13:38.607744,1.00271693,.0000785,0.0187,1.0191,97.6725,138.5159,0,U,41903,999,3484,0,-.341E-5,0
STAR ONE D1,2016-082B,2026-06-26T07:04:04.334304,1.00271933,.00022849,0.0207,52.8627,57.1683,186.4109,0,U,41904,999,3486,0,-.2E-5,0
TJS-2,2017-001A,2026-06-26T02:36:13.459104,1.00272130,.00007355,0.8564,85.2287,44.8832,249.7151,0,U,41911,999,3480,0,.4E-7,0
SBIRS GEO-4 (USA 273),2017-004A,2026-06-26T05:48:35.242848,1.00273448,.00023513,2.2602,43.5304,43.9200,294.9655,0,U,41937,999,3468,0,.132E-5,0
HISPASAT 36W-1,2017-006A,2026-06-25T19:16:23.677248,1.00269860,.00010635,0.0115,13.6207,87.9718,65.4528,0,U,41942,999,3433,0,0,0
TELKOM 3S,2017-007A,2026-06-25T16:51:38.719872,1.00269768,.00025245,0.0174,41.1293,57.6939,185.9144,0,U,41944,999,3422,0,-.352E-5,0
INTELSAT 32E (IS-32E),2017-007B,2026-06-26T03:47:33.451584,1.00269211,.00004714,0.0267,12.3300,351.3179,284.3451,0,U,41945,999,3431,0,0,0
ECHOSTAR 23,2017-014A,2026-06-25T08:39:19.024704,1.00273040,.0002137,0.0031,86.2311,8.3167,198.8773,0,U,42070,999,3400,0,-.47E-6,0
WGS F9 (USA 275),2017-016A,2026-06-26T03:56:32.591040,1.00272834,.00003643,0.0205,334.4931,98.4598,248.4719,0,U,42075,999,3398,0,-.85E-6,0
SES-10,2017-017A,2026-06-25T08:51:32.851872,1.00273735,.0003038,0.0216,41.9132,56.8061,240.7783,0,U,42432,999,3383,0,-.263E-5,0
CHINASAT 16 (SJ-13),2017-018A,2026-06-25T23:23:27.062592,1.00275032,.00040437,0.0997,89.7024,125.6560,160.1297,0,U,42662,999,3383,0,-.342E-5,0
KOREASAT 7,2017-023A,2026-06-25T23:24:56.918592,1.00270512,.00005025,0.0193,14.7223,57.3544,309.1713,0,U,42691,999,3345,0,-.351E-5,0
SGDC,2017-023B,2026-06-25T10:45:09.887904,1.00272031,.00028257,0.0199,54.8211,44.6585,260.5479,0,U,42692,999,3349,0,-.24E-5,0
GSAT-9,2017-024A,2026-06-25T23:19:42.421728,1.00275668,.00020794,0.0361,87.7222,19.3766,254.1971,0,U,42695,999,3338,0,-.276E-5,0
INMARSAT 5-F4,2017-025A,2026-06-24T04:21:31.968864,1.00265152,.0000934,0.0032,84.3686,288.6264,21.2184,0,U,42698,999,3334,0,.83E-6,0
SES-15,2017-026A,2026-06-24T12:01:53.251392,1.00268280,.00006599,0.0193,335.4736,95.5096,252.9752,0,U,42709,999,750,0,.68E-6,0
QZS-2 (MICHIBIKI-2),2017-028A,2026-06-24T11:39:17.917056,1.00282000,.07593031,39.4163,243.0474,269.3393,77.0374,0,U,42738,999,769,0,-.157E-5,0
VIASAT-2,2017-029A,2026-06-24T05:27:50.739840,1.00272341,.00003535,0.0153,301.1892,112.3888,230.8800,0,U,42740,999,3327,0,-.258E-5,0
EUTELSAT 172B,2017-029B,2026-06-26T04:48:56.934144,1.00271266,.0000268,0.0411,138.4786,307.8674,72.2190,0,U,42741,999,3383,0,.5E-7,0
GSAT-19,2017-031A,2026-06-26T05:56:12.012864,1.00271981,.00071581,0.0151,314.5183,121.6298,335.1238,0,U,42747,999,3323,0,.136E-5,0
ECHOSTAR 21,2017-032A,2026-06-26T05:45:28.041696,1.00273127,.00026005,1.7703,356.3175,87.0804,287.5942,0,U,42749,999,3319,0,.77E-6,0
BULGARIASAT-1,2017-038A,2026-06-26T05:43:05.769408,1.00276897,.00037943,0.0313,74.6669,27.5807,259.7950,0,U,42801,999,3293,0,.23E-6,0
HELLAS-SAT 3,2017-040A,2026-06-25T05:14:38.786208,1.00276198,.000485,0.0388,32.2362,27.6131,331.2103,0,U,42814,999,3288,0,.162E-5,0
GSAT-17,2017-040B,2026-06-26T02:43:57.718272,1.00271835,.00014657,0.0289,83.7014,213.1787,111.8521,0,U,42815,999,3287,0,-.247E-5,0
INTELSAT 35E (IS-35E),2017-041A,2026-06-26T06:05:13.093728,1.00269368,.00023879,0.0262,17.4303,78.8366,234.9314,0,U,42818,999,3290,0,0,0
COSMOS 2520,2017-046A,2026-06-23T21:40:14.633760,1.00274167,.00008208,0.0481,95.9270,77.4277,108.7874,0,U,42907,999,3246,0,.143E-5,0
